TYVAK-182A              
1 48271U 21034D   26068.71131789  .00007163  00000+0  50673-3 0  9991
2 48271  97.5843 129.3711 0004862 316.5650  43.5193 15.05150420264864
STARLINK-6337           
1 56528U 23065AB  26068.45077890 -.00000577  00000+0 -27607-4 0  9990
2 56528  43.0053 211.2226 0002186 283.0999  76.9600 15.02530456156591
